{
  "norad_id": 41592,
  "name": "ECHOSTAR 18",
  "history": [
    {
      "epoch": "2026-03-28T11:04:04.721664Z",
      "apogee_km": 35792.850092761364,
      "perigee_km": 35781.3305526568,
      "latitude_deg": 0.005110663148996383,
      "longitude_deg": -61.3802679519447,
      "height_km": 35784.755532100025,
      "semi_major_axis_km": 42165.227322709085,
      "eccentricity": 0.0001366,
      "inclination_deg": 0.0036,
      "raan_deg": 97.2031,
      "arg_perigee_deg": 264.9691,
      "mean_anomaly_deg": 288.3399,
      "mean_motion_rev_day": 1.00270018
    },
    {
      "epoch": "2026-03-29T00:45:45.609696Z",
      "apogee_km": 35792.58110165893,
      "perigee_km": 35780.707499244716,
      "latitude_deg": -0.0031517579541432868,
      "longitude_deg": -61.35516512066978,
      "height_km": 35790.123374473056,
      "semi_major_axis_km": 42164.781300451825,
      "eccentricity": 0.0001408,
      "inclination_deg": 0.0041,
      "raan_deg": 96.4734,
      "arg_perigee_deg": 268.1305,
      "mean_anomaly_deg": 131.8892,
      "mean_motion_rev_day": 1.00271609
    },
    {
      "epoch": "2026-03-29T10:50:52.426752Z",
      "apogee_km": 35792.76611812512,
      "perigee_km": 35781.57544543983,
      "latitude_deg": 0.0052057393658362875,
      "longitude_deg": -61.38582449278637,
      "height_km": 35786.0058354646,
      "semi_major_axis_km": 42165.307781782474,
      "eccentricity": 0.0001327,
      "inclination_deg": 0.0042,
      "raan_deg": 97.0714,
      "arg_perigee_deg": 274.5435,
      "mean_anomaly_deg": 276.5677,
      "mean_motion_rev_day": 1.00269731
    },
    {
      "epoch": "2026-03-29T10:50:52.427616Z",
      "apogee_km": 35792.76653977819,
      "perigee_km": 35781.57502378675,
      "latitude_deg": 0.005205739413580808,
      "longitude_deg": -61.385829246032316,
      "height_km": 35786.005786182795,
      "semi_major_axis_km": 42165.307781782474,
      "eccentricity": 0.00013271,
      "inclination_deg": 0.0042,
      "raan_deg": 97.0714,
      "arg_perigee_deg": 274.5435,
      "mean_anomaly_deg": 276.5677,
      "mean_motion_rev_day": 1.00269731
    },
    {
      "epoch": "2026-03-31T12:39:17.610624Z",
      "apogee_km": 35793.392513522434,
      "perigee_km": 35780.65020266661,
      "latitude_deg": 0.039295177129982234,
      "longitude_deg": -61.36520787243908,
      "height_km": 35783.51831603888,
      "semi_major_axis_km": 42165.15835809452,
      "eccentricity": 0.0001511,
      "inclination_deg": 0.0234,
      "raan_deg": 186.1935,
      "arg_perigee_deg": 193.4958,
      "mean_anomaly_deg": 297.6691,
      "mean_motion_rev_day": 1.00270264
    },
    {
      "epoch": "2026-04-01T10:54:20.255040Z",
      "apogee_km": 35793.0776064737,
      "perigee_km": 35777.95771991148,
      "latitude_deg": 0.04969677591285129,
      "longitude_deg": -61.36861457595556,
      "height_km": 35785.79265391346,
      "semi_major_axis_km": 42163.65466319259,
      "eccentricity": 0.0001793,
      "inclination_deg": 0.0226,
      "raan_deg": 192.9955,
      "arg_perigee_deg": 195.2328,
      "mean_anomaly_deg": 263.8095,
      "mean_motion_rev_day": 1.00275628
    },
    {
      "epoch": "2026-04-02T19:25:22.414944Z",
      "apogee_km": 35793.326221482006,
      "perigee_km": 35780.01900756766,
      "latitude_deg": -0.03189179547681637,
      "longitude_deg": -61.3384868179596,
      "height_km": 35780.62327291487,
      "semi_major_axis_km": 42164.809614524835,
      "eccentricity": 0.0001578,
      "inclination_deg": 0.0207,
      "raan_deg": 195.9918,
      "arg_perigee_deg": 191.3556,
      "mean_anomaly_deg": 33.7884,
      "mean_motion_rev_day": 1.00271508
    }
  ]
}